<?xml version="1.0" encoding="UTF-8"?>
<ndm xmlns:xsi="http://www.w3.org/2001/XMLSchema-instance" xsi:noNamespaceSchemaLocation="https://sanaregistry.org/r/ndmxml_unqualified/ndmxml-2.0.0-master-2.0.xsd">
<omm id="CCSDS_OMM_VERS" version="2.0">
<header><CREATION_DATE/><ORIGINATOR/></header><body><segment><metadata><OBJECT_NAME>QIANFAN-33</OBJECT_NAME><OBJECT_ID>2024-185Q</OBJECT_ID><CENTER_NAME>EARTH</CENTER_NAME><REF_FRAME>TEME</REF_FRAME><TIME_SYSTEM>UTC</TIME_SYSTEM><MEAN_ELEMENT_THEORY>SGP4</MEAN_ELEMENT_THEORY></metadata><data><meanElements><EPOCH>2025-07-20T22:45:43.675488</EPOCH><MEAN_MOTION>13.96396737</MEAN_MOTION><ECCENTRICITY>.0009088</ECCENTRICITY><INCLINATION>88.9803</INCLINATION><RA_OF_ASC_NODE>94.9689</RA_OF_ASC_NODE><ARG_OF_PERICENTER>61.5564</ARG_OF_PERICENTER><MEAN_ANOMALY>298.6528</MEAN_ANOMALY></meanElements><tleParameters><EPHEMERIS_TYPE>0</EPHEMERIS_TYPE><CLASSIFICATION_TYPE>U</CLASSIFICATION_TYPE><NORAD_CAT_ID>61566</NORAD_CAT_ID><ELEMENT_SET_NO>999</ELEMENT_SET_NO><REV_AT_EPOCH>4895</REV_AT_EPOCH><BSTAR>.19986E-3</BSTAR><MEAN_MOTION_DOT>.289E-5</MEAN_MOTION_DOT><MEAN_MOTION_DDOT>0</MEAN_MOTION_DDOT></tleParameters></data></segment></body></omm>
<omm id="CCSDS_OMM_VERS" version="2.0">
<header><CREATION_DATE/><ORIGINATOR/></header><body><segment><metadata><OBJECT_NAME>QIANFAN-34</OBJECT_NAME><OBJECT_ID>2024-185R</OBJECT_ID><CENTER_NAME>EARTH</CENTER_NAME><REF_FRAME>TEME</REF_FRAME><TIME_SYSTEM>UTC</TIME_SYSTEM><MEAN_ELEMENT_THEORY>SGP4</MEAN_ELEMENT_THEORY></metadata><data><meanElements><EPOCH>2025-07-20T22:28:26.452992</EPOCH><MEAN_MOTION>14.02149575</MEAN_MOTION><ECCENTRICITY>.0007994</ECCENTRICITY><INCLINATION>88.9782</INCLINATION><RA_OF_ASC_NODE>94.7248</RA_OF_ASC_NODE><ARG_OF_PERICENTER>69.3042</ARG_OF_PERICENTER><MEAN_ANOMALY>290.8994</MEAN_ANOMALY></meanElements><tleParameters><EPHEMERIS_TYPE>0</EPHEMERIS_TYPE><CLASSIFICATION_TYPE>U</CLASSIFICATION_TYPE><NORAD_CAT_ID>61567</NORAD_CAT_ID><ELEMENT_SET_NO>999</ELEMENT_SET_NO><REV_AT_EPOCH>4906</REV_AT_EPOCH><BSTAR>.15651E-3</BSTAR><MEAN_MOTION_DOT>.253E-5</MEAN_MOTION_DOT><MEAN_MOTION_DDOT>0</MEAN_MOTION_DDOT></tleParameters></data></segment></body></omm>
<omm id="CCSDS_OMM_VERS" version="2.0">
<header><CREATION_DATE/><ORIGINATOR/></header><body><segment><metadata><OBJECT_NAME>QIANFAN-35</OBJECT_NAME><OBJECT_ID>2024-185S</OBJECT_ID><CENTER_NAME>EARTH</CENTER_NAME><REF_FRAME>TEME</REF_FRAME><TIME_SYSTEM>UTC</TIME_SYSTEM><MEAN_ELEMENT_THEORY>SGP4</MEAN_ELEMENT_THEORY></metadata><data><meanElements><EPOCH>2025-07-20T23:24:08.182080</EPOCH><MEAN_MOTION>14.27641307</MEAN_MOTION><ECCENTRICITY>.000885</ECCENTRICITY><INCLINATION>88.9804</INCLINATION><RA_OF_ASC_NODE>93.8894</RA_OF_ASC_NODE><ARG_OF_PERICENTER>52.0762</ARG_OF_PERICENTER><MEAN_ANOMALY>308.1231</MEAN_ANOMALY></meanElements><tleParameters><EPHEMERIS_TYPE>0</EPHEMERIS_TYPE><CLASSIFICATION_TYPE>U</CLASSIFICATION_TYPE><NORAD_CAT_ID>61568</NORAD_CAT_ID><ELEMENT_SET_NO>999</ELEMENT_SET_NO><REV_AT_EPOCH>4952</REV_AT_EPOCH><BSTAR>.19088E-3</BSTAR><MEAN_MOTION_DOT>.485E-5</MEAN_MOTION_DOT><MEAN_MOTION_DDOT>0</MEAN_MOTION_DDOT></tleParameters></data></segment></body></omm>
<omm id="CCSDS_OMM_VERS" version="2.0">
<header><CREATION_DATE/><ORIGINATOR/></header><body><segment><metadata><OBJECT_NAME>QIANFAN-36</OBJECT_NAME><OBJECT_ID>2024-185T</OBJECT_ID><CENTER_NAME>EARTH</CENTER_NAME><REF_FRAME>TEME</REF_FRAME><TIME_SYSTEM>UTC</TIME_SYSTEM><MEAN_ELEMENT_THEORY>SGP4</MEAN_ELEMENT_THEORY></metadata><data><meanElements><EPOCH>2025-07-20T22:01:57.690912</EPOCH><MEAN_MOTION>13.55542121</MEAN_MOTION><ECCENTRICITY>.0008093</ECCENTRICITY><INCLINATION>88.9794</INCLINATION><RA_OF_ASC_NODE>96.1464</RA_OF_ASC_NODE><ARG_OF_PERICENTER>96.2816</ARG_OF_PERICENTER><MEAN_ANOMALY>263.9260</MEAN_ANOMALY></meanElements><tleParameters><EPHEMERIS_TYPE>0</EPHEMERIS_TYPE><CLASSIFICATION_TYPE>U</CLASSIFICATION_TYPE><NORAD_CAT_ID>61569</NORAD_CAT_ID><ELEMENT_SET_NO>999</ELEMENT_SET_NO><REV_AT_EPOCH>4830</REV_AT_EPOCH><BSTAR>.11153E-3</BSTAR><MEAN_MOTION_DOT>.9E-6</MEAN_MOTION_DOT><MEAN_MOTION_DDOT>0</MEAN_MOTION_DDOT></tleParameters></data></segment></body></omm>
<omm id="CCSDS_OMM_VERS" version="2.0">
<header><CREATION_DATE/><ORIGINATOR/></header><body><segment><metadata><OBJECT_NAME>QIANFAN-37</OBJECT_NAME><OBJECT_ID>2024-232B</OBJECT_ID><CENTER_NAME>EARTH</CENTER_NAME><REF_FRAME>TEME</REF_FRAME><TIME_SYSTEM>UTC</TIME_SYSTEM><MEAN_ELEMENT_THEORY>SGP4</MEAN_ELEMENT_THEORY></metadata><data><meanElements><EPOCH>2025-07-20T21:35:03.587712</EPOCH><MEAN_MOTION>13.50963578</MEAN_MOTION><ECCENTRICITY>.0002262</ECCENTRICITY><INCLINATION>88.9932</INCLINATION><RA_OF_ASC_NODE>55.9879</RA_OF_ASC_NODE><ARG_OF_PERICENTER>99.9292</ARG_OF_PERICENTER><MEAN_ANOMALY>260.2114</MEAN_ANOMALY></meanElements><tleParameters><EPHEMERIS_TYPE>0</EPHEMERIS_TYPE><CLASSIFICATION_TYPE>U</CLASSIFICATION_TYPE><NORAD_CAT_ID>62238</NORAD_CAT_ID><ELEMENT_SET_NO>999</ELEMENT_SET_NO><REV_AT_EPOCH>7961</REV_AT_EPOCH><BSTAR>.91837E-4</BSTAR><MEAN_MOTION_DOT>.71E-6</MEAN_MOTION_DOT><MEAN_MOTION_DDOT>0</MEAN_MOTION_DDOT></tleParameters></data></segment></body></omm>
<omm id="CCSDS_OMM_VERS" version="2.0">
<header><CREATION_DATE/><ORIGINATOR/></header><body><segment><metadata><OBJECT_NAME>QIANFAN-38</OBJECT_NAME><OBJECT_ID>2024-232C</OBJECT_ID><CENTER_NAME>EARTH</CENTER_NAME><REF_FRAME>TEME</REF_FRAME><TIME_SYSTEM>UTC</TIME_SYSTEM><MEAN_ELEMENT_THEORY>SGP4</MEAN_ELEMENT_THEORY></metadata><data><meanElements><EPOCH>2025-07-20T22:10:36.850368</EPOCH><MEAN_MOTION>13.50952356</MEAN_MOTION><ECCENTRICITY>.0012621</ECCENTRICITY><INCLINATION>88.9938</INCLINATION><RA_OF_ASC_NODE>55.8913</RA_OF_ASC_NODE><ARG_OF_PERICENTER>252.4837</ARG_OF_PERICENTER><MEAN_ANOMALY>107.4935</MEAN_ANOMALY></meanElements><tleParameters><EPHEMERIS_TYPE>0</EPHEMERIS_TYPE><CLASSIFICATION_TYPE>U</CLASSIFICATION_TYPE><NORAD_CAT_ID>62239</NORAD_CAT_ID><ELEMENT_SET_NO>999</ELEMENT_SET_NO><REV_AT_EPOCH>7967</REV_AT_EPOCH><BSTAR>.10535E-3</BSTAR><MEAN_MOTION_DOT>.8E-6</MEAN_MOTION_DOT><MEAN_MOTION_DDOT>0</MEAN_MOTION_DDOT></tleParameters></data></segment></body></omm>
<omm id="CCSDS_OMM_VERS" version="2.0">
<header><CREATION_DATE/><ORIGINATOR/></header><body><segment><metadata><OBJECT_NAME>QIANFAN-39</OBJECT_NAME><OBJECT_ID>2024-232D</OBJECT_ID><CENTER_NAME>EARTH</CENTER_NAME><REF_FRAME>TEME</REF_FRAME><TIME_SYSTEM>UTC</TIME_SYSTEM><MEAN_ELEMENT_THEORY>SGP4</MEAN_ELEMENT_THEORY></metadata><data><meanElements><EPOCH>2025-07-20T20:51:14.139360</EPOCH><MEAN_MOTION>14.25225322</MEAN_MOTION><ECCENTRICITY>.0015614</ECCENTRICITY><INCLINATION>88.9935</INCLINATION><RA_OF_ASC_NODE>53.9119</RA_OF_ASC_NODE><ARG_OF_PERICENTER>185.0476</ARG_OF_PERICENTER><MEAN_ANOMALY>175.0562</MEAN_ANOMALY></meanElements><tleParameters><EPHEMERIS_TYPE>0</EPHEMERIS_TYPE><CLASSIFICATION_TYPE>U</CLASSIFICATION_TYPE><NORAD_CAT_ID>62240</NORAD_CAT_ID><ELEMENT_SET_NO>999</ELEMENT_SET_NO><REV_AT_EPOCH>8075</REV_AT_EPOCH><BSTAR>.91657E-4</BSTAR><MEAN_MOTION_DOT>.23E-5</MEAN_MOTION_DOT><MEAN_MOTION_DDOT>0</MEAN_MOTION_DDOT></tleParameters></data></segment></body></omm>
<omm id="CCSDS_OMM_VERS" version="2.0">
<header><CREATION_DATE/><ORIGINATOR/></header><body><segment><metadata><OBJECT_NAME>QIANFAN-40</OBJECT_NAME><OBJECT_ID>2024-232E</OBJECT_ID><CENTER_NAME>EARTH</CENTER_NAME><REF_FRAME>TEME</REF_FRAME><TIME_SYSTEM>UTC</TIME_SYSTEM><MEAN_ELEMENT_THEORY>SGP4</MEAN_ELEMENT_THEORY></metadata><data><meanElements><EPOCH>2025-07-20T22:58:00.802272</EPOCH><MEAN_MOTION>13.50958617</MEAN_MOTION><ECCENTRICITY>.0011623</ECCENTRICITY><INCLINATION>88.9965</INCLINATION><RA_OF_ASC_NODE>55.4319</RA_OF_ASC_NODE><ARG_OF_PERICENTER>261.5037</ARG_OF_PERICENTER><MEAN_ANOMALY>98.4797</MEAN_ANOMALY></meanElements><tleParameters><EPHEMERIS_TYPE>0</EPHEMERIS_TYPE><CLASSIFICATION_TYPE>U</CLASSIFICATION_TYPE><NORAD_CAT_ID>62241</NORAD_CAT_ID><ELEMENT_SET_NO>999</ELEMENT_SET_NO><REV_AT_EPOCH>8004</REV_AT_EPOCH><BSTAR>.12298E-3</BSTAR><MEAN_MOTION_DOT>.91E-6</MEAN_MOTION_DOT><MEAN_MOTION_DDOT>0</MEAN_MOTION_DDOT></tleParameters></data></segment></body></omm>

</ndm>
