QIANFAN-33              
1 61566U 24185Q   25201.94842217  .00000289  00000+0  19986-3 0  9995
2 61566  88.9803  94.9689 0009088  61.5564 298.6528 13.96396737 48959
QIANFAN-34              
1 61567U 24185R   25201.93641728  .00000253  00000+0  15651-3 0  9995
2 61567  88.9782  94.7248 0007994  69.3042 290.8994 14.02149575 49064
QIANFAN-35              
1 61568U 24185S   25201.97509470  .00000485  00000+0  19088-3 0  9992
2 61568  88.9804  93.8894 0008850  52.0762 308.1231 14.27641307 49522
QIANFAN-36              
1 61569U 24185T   25201.91802883  .00000090  00000+0  11153-3 0  9998
2 61569  88.9794  96.1464 0008093  96.2816 263.9260 13.55542121 48308
QIANFAN-37              
1 62238U 24232B   25201.89934708  .00000071  00000+0  91837-4 0  9991
2 62238  88.9932  55.9879 0002262  99.9292 260.2114 13.50963578 79613
QIANFAN-38              
1 62239U 24232C   25201.92403762  .00000080  00000+0  10535-3 0  9992
2 62239  88.9938  55.8913 0012621 252.4837 107.4935 13.50952356 79670
QIANFAN-39              
1 62240U 24232D   25201.86891365  .00000230  00000+0  91657-4 0  9999
2 62240  88.9935  53.9119 0015614 185.0476 175.0562 14.25225322 80758
QIANFAN-40              
1 62241U 24232E   25201.95695373  .00000091  00000+0  12298-3 0  9999
2 62241  88.9965  55.4319 0011623 261.5037  98.4797 13.50958617 80047
